OBJECT_NAME,OBJECT_ID,EPOCH,MEAN_MOTION,ECCENTRICITY,INCLINATION,RA_OF_ASC_NODE,ARG_OF_PERICENTER,MEAN_ANOMALY,EPHEMERIS_TYPE,CLASSIFICATION_TYPE,NORAD_CAT_ID,ELEMENT_SET_NO,REV_AT_EPOCH,BSTAR,MEAN_MOTION_DOT,MEAN_MOTION_DDOT
STARLINK-34917,2025-175S,2026-07-11T04:00:01.998720,15.05668753,.0002112,97.2868,62.4771,94.7979,198.9859,0,U,65190,999,547,-.35404E-3,-.5163E-4,0
STARLINK-34948,2025-175T,2026-07-11T02:37:59.123712,15.05655397,.0002986,97.2873,62.4274,79.3420,280.8144,0,U,65191,999,5121,.61695E-4,.834E-5,0
STARLINK-34955,2025-175U,2026-07-11T02:34:00.136992,15.05657545,.0002887,97.2868,62.4359,88.2496,271.9062,0,U,65192,999,5118,.12584E-3,.176E-4,0
STARLINK-34950,2025-175V,2026-07-11T02:30:00.749376,15.05657440,.0002319,97.2866,62.4389,87.5210,272.6283,0,U,65193,999,5118,.9824E-4,.1362E-4,0
STARLINK-34926,2025-175W,2026-07-10T21:26:58.400736,15.05651040,.0004075,97.2848,62.2647,33.1583,326.9899,0,U,65194,999,5115,.12266E-4,.121E-5,0
STARLINK-34928,2025-175X,2026-07-11T02:18:02.700576,15.05645395,.000398,97.2833,62.4507,76.2276,283.9395,0,U,65195,999,5121,.32392E-4,.411E-5,0
STARLINK-34927,2025-175Y,2026-07-11T02:25:58.811232,15.05690040,.0001847,97.2823,62.4412,113.8706,246.2715,0,U,65196,999,5121,-.15127E-2,-.21838E-3,0
STARLINK-34952,2025-175Z,2026-07-10T02:26:32.187552,15.05666141,.00024936,97.2858,61.5041,82.6888,277.4623,0,U,65197,999,5106,.7916855E-4,.1087E-4,0
STARLINK-34981,2025-176A,2026-07-10T08:00:03.000384,15.30184391,.00012954,53.1608,305.9252,94.8407,36.6501,0,U,65198,999,583,.57814938E-3,.16794E-3,0
STARLINK-34821,2025-176B,2026-07-10T19:30:56.232576,15.34399874,.0000992,53.1583,298.5383,96.5587,263.5528,0,U,65199,999,5193,.47368E-3,.15661E-3,0
STARLINK-34865,2025-176C,2026-07-10T19:09:51.486048,15.34384415,.0000899,53.1574,299.1604,99.1567,260.9537,0,U,65200,999,5199,.56855E-3,.18872E-3,0
STARLINK-34843,2025-176D,2026-07-10T21:25:56.426016,15.34396778,.0000387,53.1616,298.3193,138.3042,221.7990,0,U,65201,999,5201,.51471E-3,.17052E-3,0
STARLINK-34905,2025-176E,2026-07-10T21:28:58.951200,15.34340354,.000078,53.1598,298.3306,101.3519,258.7571,0,U,65202,999,5201,.30181E-3,.9816E-4,0
STARLINK-34914,2025-176F,2026-07-10T21:22:55.486272,15.34389649,.0001072,53.1599,298.3060,75.0898,285.0223,0,U,65203,999,5201,.42411E-3,.13975E-3,0
STARLINK-34787,2025-176G,2026-07-10T19:27:54.548064,15.34400368,.0000939,53.1590,298.5206,99.5570,260.5539,0,U,65204,999,5200,.73546E-3,.24554E-3,0
STARLINK-34796,2025-176H,2026-07-10T21:56:14.356320,15.34363449,.0000936,53.1574,298.4548,98.0737,262.0372,0,U,65205,999,5201,.41325E-3,.13595E-3,0
STARLINK-34763,2025-176J,2026-07-10T18:42:35.230752,15.34404146,.0001146,53.1579,299.0346,107.3336,252.7792,0,U,65206,999,5198,.74781E-3,.24977E-3,0
STARLINK-34901,2025-176K,2026-07-10T20:37:35.673024,15.34373850,.0001245,53.1561,298.8237,115.2350,244.8781,0,U,65207,999,5200,.36914E-3,.12106E-3,0
STARLINK-34841,2025-176L,2026-07-10T19:46:05.202048,15.34396751,.0000551,53.1594,298.6047,62.8966,297.2093,0,U,65208,999,5200,.51684E-3,.17124E-3,0
STARLINK-34976,2025-176M,2026-07-10T21:47:09.446208,15.34377099,.0000888,53.1588,298.4120,93.9452,266.1652,0,U,65209,999,5201,.13602E-3,.4219E-4,0
STARLINK-34941,2025-176N,2026-07-10T06:30:23.898816,15.34395923,.00011389,53.1550,301.5506,85.8416,274.2717,0,U,65210,999,5191,.13302312E-3,.412E-4,0
STARLINK-34847,2025-176P,2026-07-10T16:05:57.004224,15.34419941,.0000718,53.1597,301.1963,56.6766,303.4306,0,U,65211,999,5195,.28039E-3,.9115E-4,0
STARLINK-34897,2025-176Q,2026-07-10T18:30:25.567200,15.34450170,.0001098,53.1592,298.9799,52.6550,307.4553,0,U,65212,999,5199,.49013E-3,.16246E-3,0
STARLINK-34907,2025-176R,2026-07-10T19:06:49.328064,15.34404250,.0001351,53.1574,299.1361,140.7559,219.3541,0,U,65213,999,5199,.80745E-3,.27007E-3,0
STARLINK-34511,2025-176S,2026-07-10T22:05:19.870368,15.34374960,.0000791,53.1575,298.4943,128.5765,231.5309,0,U,65214,999,5195,.1342E-3,.4157E-4,0
STARLINK-33913,2025-176T,2026-07-10T17:09:36.559008,15.34414711,.000191,53.1587,301.4721,26.8193,333.2908,0,U,65215,999,5195,.69357E-3,.23141E-3,0
STARLINK-34302,2025-176U,2026-07-10T20:10:19.448832,15.34402494,.0001148,53.1597,298.7048,53.6892,306.4216,0,U,65216,999,5200,.65443E-3,.21801E-3,0
STARLINK-34871,2025-176V,2026-07-10T19:36:59.605056,15.34403408,.0000761,53.1586,298.5603,103.4213,256.6874,0,U,65217,999,5200,.30015E-3,.9779E-4,0
STARLINK-34833,2025-176W,2026-07-10T22:02:18.039840,15.34384008,.0000849,53.1584,298.4767,116.7063,243.4027,0,U,65218,999,5201,.30273E-3,.9861E-4,0
STARLINK-34960,2025-176X,2026-07-10T19:21:58.702752,15.34391111,.0001118,53.1580,299.2080,66.9143,293.1977,0,U,65219,999,5199,.47364E-3,.15655E-3,0
