STARLINK-34917          
1 65190U 25175S   26192.16668980 -.00005163  00000+0 -35404-3 0  9990
2 65190  97.2868  62.4771 0002112  94.7979 198.9859 15.05668753  5472
STARLINK-34948          
1 65191U 25175T   26192.10971208  .00000834  00000+0  61695-4 0  9995
2 65191  97.2873  62.4274 0002986  79.3420 280.8144 15.05655397 51217
STARLINK-34955          
1 65192U 25175U   26192.10694603  .00001760  00000+0  12584-3 0  9998
2 65192  97.2868  62.4359 0002887  88.2496 271.9062 15.05657545 51181
STARLINK-34950          
1 65193U 25175V   26192.10417534  .00001362  00000+0  98240-4 0  9997
2 65193  97.2866  62.4389 0002319  87.5210 272.6283 15.05657440 51186
STARLINK-34926          
1 65194U 25175W   26191.89373149  .00000121  00000+0  12266-4 0  9992
2 65194  97.2848  62.2647 0004075  33.1583 326.9899 15.05651040 51156
STARLINK-34928          
1 65195U 25175X   26192.09586459  .00000411  00000+0  32392-4 0  9990
2 65195  97.2833  62.4507 0003980  76.2276 283.9395 15.05645395 51215
STARLINK-34927          
1 65196U 25175Y   26192.10137513 -.00021838  00000+0 -15127-2 0  9999
2 65196  97.2823  62.4412 0001847 113.8706 246.2715 15.05690040 51211
STARLINK-34952          
1 65197U 25175Z   26191.10176143  .00001087  00000+0  79169-4 0  9991
2 65197  97.2858  61.5041 0002493  82.6888 277.4623 15.05666141 51062
STARLINK-34981          
1 65198U 25176A   26191.33336806  .00016794  00000+0  57815-3 0  9996
2 65198  53.1608 305.9252 0001295  94.8407  36.6501 15.30184391  5831
STARLINK-34821          
1 65199U 25176B   26191.81315084  .00015661  00000+0  47368-3 0  9999
2 65199  53.1583 298.5383 0000992  96.5587 263.5528 15.34399874 51937
STARLINK-34865          
1 65200U 25176C   26191.79851257  .00018872  00000+0  56855-3 0  9994
2 65200  53.1574 299.1604 0000899  99.1567 260.9537 15.34384415 51998
STARLINK-34843          
1 65201U 25176D   26191.89301419  .00017052  00000+0  51471-3 0  9994
2 65201  53.1616 298.3193 0000387 138.3042 221.7990 15.34396778 52013
STARLINK-34905          
1 65202U 25176E   26191.89512675  .00009816  00000+0  30181-3 0  9997
2 65202  53.1598 298.3306 0000780 101.3519 258.7571 15.34340354 52019
STARLINK-34914          
1 65203U 25176F   26191.89091998  .00013975  00000+0  42411-3 0  9998
2 65203  53.1599 298.3060 0001072  75.0898 285.0223 15.34389649 52017
STARLINK-34787          
1 65204U 25176G   26191.81104801  .00024554  00000+0  73546-3 0  9997
2 65204  53.1590 298.5206 0000939  99.5570 260.5539 15.34400368 52001
STARLINK-34796          
1 65205U 25176H   26191.91405505  .00013595  00000+0  41325-3 0  9997
2 65205  53.1574 298.4548 0000936  98.0737 262.0372 15.34363449 52019
STARLINK-34763          
1 65206U 25176J   26191.77957443  .00024977  00000+0  74781-3 0  9993
2 65206  53.1579 299.0346 0001146 107.3336 252.7792 15.34404146 51988
STARLINK-34901          
1 65207U 25176K   26191.85944066  .00012106  00000+0  36914-3 0  9997
2 65207  53.1561 298.8237 0001245 115.2350 244.8781 15.34373850 52001
STARLINK-34841          
1 65208U 25176L   26191.82367132  .00017124  00000+0  51684-3 0  9994
2 65208  53.1594 298.6047 0000551  62.8966 297.2093 15.34396751 52007
STARLINK-34976          
1 65209U 25176M   26191.90774822  .00004219  00000+0  13602-3 0  9991
2 65209  53.1588 298.4120 0000888  93.9452 266.1652 15.34377099 52010
STARLINK-34941          
1 65210U 25176N   26191.27110994  .00004120  00000+0  13302-3 0  9995
2 65210  53.1550 301.5506 0001138  85.8416 274.2717 15.34395923 51910
STARLINK-34847          
1 65211U 25176P   26191.67079866  .00009115  00000+0  28039-3 0  9994
2 65211  53.1597 301.1963 0000718  56.6766 303.4306 15.34419941 51952
STARLINK-34897          
1 65212U 25176Q   26191.77112925  .00016246  00000+0  49013-3 0  9998
2 65212  53.1592 298.9799 0001098  52.6550 307.4553 15.34450170 51998
STARLINK-34907          
1 65213U 25176R   26191.79640426  .00027007  00000+0  80745-3 0  9997
2 65213  53.1574 299.1361 0001351 140.7559 219.3541 15.34404250 51993
STARLINK-34511          
1 65214U 25176S   26191.92036887  .00004157  00000+0  13420-3 0  9990
2 65214  53.1575 298.4943 0000791 128.5765 231.5309 15.34374960 51951
STARLINK-33913          
1 65215U 25176T   26191.71500647  .00023141  00000+0  69357-3 0  9992
2 65215  53.1587 301.4721 0001910  26.8193 333.2908 15.34414711 51957
STARLINK-34302          
1 65216U 25176U   26191.84050288  .00021801  00000+0  65443-3 0  9991
2 65216  53.1597 298.7048 0001148  53.6892 306.4216 15.34402494 52002
STARLINK-34871          
1 65217U 25176V   26191.81735654  .00009779  00000+0  30015-3 0  9993
2 65217  53.1586 298.5603 0000761 103.4213 256.6874 15.34403408 52009
STARLINK-34833          
1 65218U 25176W   26191.91826435  .00009861  00000+0  30273-3 0  9991
2 65218  53.1584 298.4767 0000849 116.7063 243.4027 15.34384008 52014
STARLINK-34960          
1 65219U 25176X   26191.80692943  .00015655  00000+0  47364-3 0  9992
2 65219  53.1580 299.2080 0001118  66.9143 293.1977 15.34391111 51998
